{
  "norad_id": 54588,
  "name": "JIAOTONG VDES",
  "history": [
    {
      "epoch": "2026-03-28T23:06:55.289952Z",
      "apogee_km": 745.3151479892167,
      "perigee_km": 732.0728605395816,
      "latitude_deg": -6.618100430347346e-06,
      "longitude_deg": -63.76742383029624,
      "height_km": 747.6747011757751,
      "semi_major_axis_km": 7116.831004264399,
      "eccentricity": 0.00093035,
      "inclination_deg": 98.2489,
      "raan_deg": 109.339,
      "arg_perigee_deg": 204.8053,
      "mean_anomaly_deg": 155.2693,
      "mean_motion_rev_day": 14.46014947
    },
    {
      "epoch": "2026-03-29T04:05:50.924256Z",
      "apogee_km": 745.3235185591457,
      "perigee_km": 732.0634400101435,
      "latitude_deg": -1.769325867617841e-05,
      "longitude_deg": -138.50184018516038,
      "height_km": 747.7152195100587,
      "semi_major_axis_km": 7116.830479284645,
      "eccentricity": 0.0009316,
      "inclination_deg": 98.2488,
      "raan_deg": 109.541,
      "arg_perigee_deg": 204.1156,
      "mean_anomaly_deg": 155.9601,
      "mean_motion_rev_day": 14.46015107
    },
    {
      "epoch": "2026-03-30T05:00:29.045664Z",
      "apogee_km": 745.3654503713733,
      "perigee_km": 732.014283169311,
      "latitude_deg": 2.0468239421316754e-05,
      "longitude_deg": -152.17392577490054,
      "height_km": 747.8981023994763,
      "semi_major_axis_km": 7116.826866770341,
      "eccentricity": 0.000938,
      "inclination_deg": 98.2487,
      "raan_deg": 110.5508,
      "arg_perigee_deg": 200.8533,
      "mean_anomaly_deg": 159.2278,
      "mean_motion_rev_day": 14.46016208
    }
  ]
}